NAVSTAR 43 (USA 132)    
1 24876U 97035A   25117.38483978  .00000062  00000+0  00000+0 0  9993
2 24876  55.7881 114.8403 0088935  53.6917 307.1402  2.00562491203616
NAVSTAR 47 (USA 150)    
1 26360U 00025A   25117.77220873 -.00000081  00000+0  00000+0 0  9994
2 26360  54.9025  36.0985 0036915 232.6103 136.3271  2.00553814182941
ISS (ZARYA)             
1 25544U 98067A   25118.15835618  .00017661  00000+0  32398-3 0  9992
2 25544  51.6355 194.8450 0002487  79.1319 280.9949 15.49353104507401
